ONEWEB-0647             
1 56079U 23043AK  23362.23733609 -.00000001  00000+0 -37812-4 0  9995
2 56079  87.9002  78.7839 0001459 114.8840 245.2442 13.15548553 37836
ONEWEB-0651             
1 56080U 23043AL  23362.61285071  .00000056  00000+0  11597-3 0  9993
2 56080  87.9005  78.6804 0001257 100.9420 259.1851 13.15547436 39084
ONEWEB-0718             
1 56081U 23043AM  23362.76022000  .00000014  00000+0  30377-5 0  9994
2 56081  87.9003  78.6389 0002269  92.5451 267.5939 13.15546301 38826
GSLV R/B                
1 56082U 23043AN  23362.60281735  .00046098  00000+0  66928-3 0  9991
2 56082  87.4088  43.5967 0018639  31.4408 328.7965 15.55426700 42831
ONEWEB-0561             
1 56710U 23068A   23362.29097422  .00000180  00000+0  33551-3 0  9997
2 56710  88.2925  90.5363 0001803 130.6524 229.4774 13.34320411 30330
ONEWEB-0668             
1 56711U 23068B   23362.91667824 -.00718310  00000+0 -35146+0 0  9997
2 56711  87.1278  50.9215 0013973 164.5093 198.4961 14.20699583 33593
ONEWEB-0676             
1 56712U 23068C   23362.58334491 -.00906806  00000+0 -55081+0 0  9991
2 56712  87.0691  51.0268 0015397 159.8088  73.5567 14.09231947  5637
ONEWEB-0677             
1 56713U 23068D   23362.25898090  .00000142  00000+0  25706-3 0  9997
2 56713  88.3261  88.6771 0001196  97.7143 262.4134 13.34769868 30513
